GEOSCAN-3 (RS92S3)
1 64893U 25155T   26125.15811328  .00025282  00000-0  76984-3 0  9999
2 64893  97.4524  94.5918 0005187   3.0331 357.0942 15.33967173 74253
INNOSAT3 (RS92S0)
1 64894U 25155U   26125.16641078  .00048885  00000-0  11839-2 0  9995
2 64894  97.4483  95.7413 0004115  17.2974 342.8412 15.40935545 74330
CSTP-4.1
1 64895U 25155V   26125.16844828  .00013599  00000-0  48814-3 0  9992
2 64895  97.4560  93.5742 0006243 347.5995  12.5090 15.28784660 74175
SILVERSAT
1 66909U 98067XV  26113.44966717  .07226154  12288-4  11979-2 0  9998
2 66909  51.6027 190.0749 0007952 333.4666  26.5949 16.32457272 22308
POLYTECH UNIVERSE-3 (RS46S)
1 57191U 23091AB  26125.18894852  .00006512  00000-0  31627-3 0  9995
2 57191  97.5073 183.2610 0013953 279.5487  80.4170 15.18717601157426
CSTP-1.1
1 57202U 23091AN  26125.18875617  .00006321  00000-0  30764-3 0  9995
2 57202  97.5139 184.2447 0008007 255.3048 104.7298 15.18708742157438
CSTP-1.2
1 57186U 23091W   26125.16493363  .00010723  00000-0  39106-3 0  9998
2 57186  97.5168 191.0212 0017206 242.4024 117.5468 15.28206240157886
MULE-4T
1 67286U 25313AQ  26124.99885731  .00009057  00000-0  38094-3 0  9996
2 67286  97.3944 200.5322 0011005 141.4308 218.7718 15.23569924 19391
SCORPION (RS89S)
1 67293U 25313AX  26125.16886080  .00005461  00000-0  23840-3 0  9990
2 67293  97.3945 200.6100 0012302 134.0929 226.1322 15.22477171 19411
GALAPAGOS-UTE-SWSU
1 67279U 25313AH  26124.76433778  .00007921  00000-0  34630-3 0  9993
2 67279  97.3932 200.0747 0015175 151.6056 208.6011 15.22244267 19349
SAKHACUBE-CHOLBON (RS18S)
1 67290U 25313AU  26124.18214453  .00009217  00000-0  38181-3 0  9994
2 67290  97.3941 199.7923 0010560 145.0140 215.1793 15.24080997 19278
LUCA-1 (RS90S)
1 67287U 25313AR  26124.72190185  .00009211  00000-0  38455-3 0  9993
2 67287  97.3942 200.2923 0010864 143.8316 216.3658 15.23815033 19359
QMR-KWT-2 (RS95S)
1 67291U 25313AV  26124.73044713  .00014543  00000-0  58147-3 0  9998
2 67291  97.3939 200.4299 0010353 142.6290 217.5669 15.25157360 19369
LOBACHEVSKY (RS83S)
1 67284U 25313AN  26124.72484003  .00005484  00000-0  23959-3 0  9996
2 67284  97.3929 200.1068 0011755 146.1544 214.0445 15.22452543 19349
NASBSAT-1
1 67289U 25313AT  26125.00049683  .00013722  00000-0  55210-3 0  9993
2 67289  97.3944 200.6817 0010607 142.9989 217.1982 15.24959234 19408
NASBSAT-2
1 67285U 25313AP  26125.14529963  .00007277  00000-0  31033-3 0  9993
2 67285  97.3925 200.6011 0011438 146.5124 213.6839 15.23164694 19413
HORS-5
1 67283U 25313AM  26124.21793070  .00003384  00000-0  14519-3 0  9995
2 67283  97.3941 199.7411 0011462 146.6861 213.5100 15.23351955 19279
AIST-2T 2
1 67253U 25313F   26124.19989753  .00007654  00000-0  93679-4 0  9993
2 67253  97.0823 201.8480 0004468  22.4730 337.6723 15.60657783 19769
AIST-2T 1
1 67254U 25313G   26125.19352257  .00128881  00000-0  15277-2 0  9990
2 67254  97.0853 202.7609 0004639   2.3157 357.8121 15.60784795 19902
AIST-ST (RS86S)
1 67267U 25313V   26125.19314713  .00014962  00000-0  63475-3 0  9997
2 67267  97.3948 200.5878 0014771 154.9840 205.2116 15.23102704 19418
KOWSAR 1.5
1 67264U 25313S   26125.18589843  .00008542  00000-0  37775-3 0  9992
2 67264  97.4027 200.5756 0015847 155.6168 204.5821 15.21821791 19401
PAYA
1 67255U 25313H   26125.15205376  .00003281  00000-0  21160-3 0  9991
2 67255  97.2871 195.3488 0070251 121.6155 239.1954 15.06908339 19170
GRIFON-1
1 67281U 25313AK  26125.14611274  .00005671  00000-0  24999-3 0  9995
2 67281  97.3887 200.4017 0013028 146.0745 214.1327 15.22119189 19406
GRIFON-2
1 67272U 25313AA  26124.78896125  .00011164  00000-0  47253-3 0  9996
2 67272  97.3945 200.2087 0015324 152.2193 207.9865 15.23245400 19351
GRIFON-3
1 67280U 25313AJ  26124.75953546  .00005743  00000-0  25377-3 0  9992
2 67280  97.4006 200.1882 0014252 148.5664 211.6427 15.22015811 19346
GRIFON-4
1 67261U 25313P   26124.72373355  .00018073  00000-0  72536-3 0  9991
2 67261  97.3975 200.3583 0015215 150.3366 209.8738 15.24925436 19359
MARAFON
1 67250U 25313C   26125.07275678  .00014845  00000-0  13024-2 0  9996
2 67250  97.6165 197.4388 0155700 119.7286 241.9528 14.87773860 18942
MORSAT (RS96S)
1 67262U 25313Q   26124.99865200  .00012211  00000-0  51902-3 0  9998
2 67262  97.3949 200.3854 0015515 151.7098 208.4985 15.23074586 19384
MARAFON-EXPERIMENTAL
1 67251U 25313D   26125.21896562  .00004439  00000-0  38168-3 0  9999
2 67251  97.5697 197.3673 0150747 109.7712 251.9832 14.89451010 19006
OBZP1
1 90000U 00001A   26082.73220162  .00000000  00000-0  52294-3 0    10
2 90000  82.2945 108.6614 0025130  78.3270   5.7283 15.88315102    15
